GSAT-15,11697.5,0,25,90,"1 41028U 15065A   23176.33313058 -.00000243  00000+0  00000+0 0  9995,2 41028   0.0114 346.6174 0003767  95.6642  44.3444  1.00267187 27957"
GSAT-10,11697.5,0,25,90,"1 41028U 15065A   23176.33313058 -.00000243  00000+0  00000+0 0  9995,2 41028   0.0114 346.6174 0003767  95.6642  44.3444  1.00267187 27957"
GSAT-7,11697.5,0,25,90,"1 41028U 15065A   23176.33313058 -.00000243  00000+0  00000+0 0  9995,2 41028   0.0114 346.6174 0003767  95.6642  44.3444  1.00267187 27957"
